GLOBALSTAR M035 [-]     
1 25851U 99037A   24013.57693391 -.00000108  00000+0 -16876-2 0  9992
2 25851  51.9940 135.9582 0013512 212.8402 231.3359 11.04528111 38736
GLOBALSTAR M032 [-]     
1 25852U 99037B   24013.39494526 -.00000004  00000+0  20204-2 0  9996
2 25852  51.9992 357.5007 0009236   9.1642 350.9325 11.19049340 76482
GLOBALSTAR M051 [-]     
1 25853U 99037C   24013.52716188 -.00000069  00000+0  82842-4 0  9992
2 25853  51.9757 216.9079 0002104  35.6299 324.4651 11.42195797 72891
GLOBALSTAR M030 [-]     
1 25854U 99037D   24013.40144012 -.00000094  00000+0 -39624-3 0  9999
2 25854  51.9894  56.4280 0004557 187.8594 172.2152 11.55086993 89868
GLOBALSTAR M048 [-]     
1 25872U 99041A   24013.55052535 -.00000071  00000+0 -15193-4 0  9999
2 25872  51.9359 131.7491 0012767   8.1055  76.3122 11.33842455 65925
GLOBALSTAR M026 [-]     
1 25873U 99041B   24013.07686750  .00000020  00000+0  30964-2 0  9992
2 25873  51.9995 260.5311 0002083  92.0164  57.5755 11.06834830 90780
GLOBALSTAR M043 [-]     
1 25874U 99041C   24012.85658215 -.00000063  00000+0  14718-3 0  9991
2 25874  51.9363 220.2654 0013485 139.7702 316.6470 11.25674098 64163
GLOBALSTAR M028 [-]     
1 25875U 99041D   24013.20021635 -.00000040  00000+0  39231-3 0  9994
2 25875  51.9640 306.5119 0064051  20.3488 339.9905 12.50547957124998
